IRIDIUM 7               
1 24793U 97020B   24178.50078361  .00000576  00000+0  19453-3 0  9997
2 24793  86.3965 325.9305 0001981  98.0578 262.0843 14.35265147420860
IRIDIUM 5               
1 24795U 97020D   24178.22612104  .00003320  00000+0  31367-3 0  9995
2 24795  86.3914 246.9281 0119767 331.2138  28.2511 14.88024274432417
IRIDIUM 4               
1 24796U 97020E   24178.50163267  .00000596  00000+0  19775-3 0  9999
2 24796  86.3960 323.0428 0001980  91.4653 268.6771 14.36191665421400
IRIDIUM 914             
1 24836U 97030A   24178.50731207  .00000680  00000+0  20951-3 0  9992
2 24836  86.3942 332.6927 0001474  36.0904 324.0395 14.40054677555927
IRIDIUM 16              
1 24841U 97030F   24178.49684875  .00000629  00000+0  20190-3 0  9992
2 24841  86.4039 354.6963 0003615 121.6146 238.5405 14.37944045415876
IRIDIUM 911             
1 24842U 97030G   24178.50655732  .00000820  00000+0  22172-3 0  9990
2 24842  86.4465 353.8103 0013563 195.1211 164.9589 14.46593643423642
IRIDIUM 17              
1 24870U 97034B   24178.12367118  .00000507  00000+0  16446-3 0  9990
2 24870  86.3959  24.4399 0003749  92.2430 267.9196 14.37037300412439
IRIDIUM 920             
1 24871U 97034C   24178.94273637  .00000604  00000+0  18259-3 0  9995
2 24871  86.3979   4.1553 0011971 163.7509 196.4077 14.40754816415413
